STARLINK-30344
1 57737U 23131F   26079.35666695  .00005470  00000+0  39117-3 0  9998
2 57737  42.9994 113.4193 0001050 255.2340 104.8387 15.05201679141538
STARLINK-30351
1 57738U 23131G   26079.91668981  .00025294  00000+0  92585-3 0  9995
2 57738  42.9993 108.8348 0001315 274.8837 170.6177 15.27568217  5670
STARLINK-30242
1 57739U 23131H   26079.35615001  .00000637  00000+0  32655-4 0  9996
2 57739  43.0018  83.4081 0001321 271.7197  88.3503 15.27579578141889
STARLINK-30331
1 57740U 23131J   26079.92945332  .00000322  00000+0  21237-4 0  9999
2 57740  43.0054  35.9235 0001061 264.3235  95.7496 15.27573904142494
STARLINK-30364
1 57741U 23131K   26079.36411154  .00000861  00000+0  41759-4 0  9997
2 57741  43.0023 111.7709 0001457 276.4883  83.5803 15.26751329141553
STARLINK-30308
1 57742U 23131L   26079.91668981  .00032428  00000+0  12140-2 0  9995
2 57742  42.9990 108.8651 0001491 264.0246 167.6312 15.26718679  5629
STARLINK-30361
1 57743U 23131M   26079.91668981  .00023782  00000+0  89337-3 0  9992
2 57743  42.9998 108.7295 0001679 266.1613 222.3127 15.26741770  5722
STARLINK-30363
1 57744U 23131N   26079.76120443  .00002603  00000+0  10665-3 0  9999
2 57744  43.0034  95.1180 0001152 272.0249  88.0470 15.26752566141785
STARLINK-30362
1 57745U 23131P   26079.91668981  .01251256  00000+0  45412-1 0  9998
2 57745  43.0002 109.3601 0001924 240.6947 338.0823 15.24660954  5685
STARLINK-30350
1 57746U 23131Q   26079.78887731  .00001459  00000+0  62531-4 0  9991
2 57746  43.0034 106.3757 0001456 264.9935  95.0751 15.27579794141658
STARLINK-30307
1 57747U 23131R   26079.91668981  .00019964  00000+0  75278-3 0  9992
2 57747  42.9993 109.0073 0001417 269.3360 100.0225 15.26702073  5738
STARLINK-30356
1 57748U 23131S   26079.91668981  .00025773  00000+0  96760-3 0  9997
2 57748  42.9999 108.4317 0001455 273.8621 339.3728 15.26723867  5639
STARLINK-30366
1 57749U 23131T   26079.91668981  .00041490  00000+0  27021-2 0  9995
2 57749  43.0017 110.2541 0000851 233.4051 324.0320 15.07278893  5789
STARLINK-30357
1 57750U 23131U   26079.36506770  .00001099  00000+0  96449-4 0  9996
2 57750  43.0029 113.4688 0001324 272.5119  87.5572 15.02532841141531
STARLINK-30370
1 57751U 23131V   26079.75168506  .00000361  00000+0  22627-4 0  9999
2 57751  43.0010  95.0763 0000853 271.6518  88.4236 15.27584090141784
STARLINK-30368
1 57752U 23131W   26079.91668981  .00028908  00000+0  10833-2 0  9991
2 57752  42.9995 108.9218 0001099 250.5505 141.2916 15.26734180  5787
