[{"OBJECT_NAME":"STARLINK-30344","OBJECT_ID":"2023-131F","EPOCH":"2026-03-20T08:33:36.024480","MEAN_MOTION":15.05201679,"ECCENTRICITY":0.00010507,"INCLINATION":42.9994,"RA_OF_ASC_NODE":113.4193,"ARG_OF_PERICENTER":255.234,"MEAN_ANOMALY":104.8387,"EPHEMERIS_TYPE":0,"CLASSIFICATION_TYPE":"U","NORAD_CAT_ID":57737,"ELEMENT_SET_NO":999,"REV_AT_EPOCH":14153,"BSTAR":0.00039116611,"MEAN_MOTION_DOT":5.47e-5,"MEAN_MOTION_DDOT":0},{"OBJECT_NAME":"STARLINK-30351","OBJECT_ID":"2023-131G","EPOCH":"2026-03-20T22:00:01.999584","MEAN_MOTION":15.27568217,"ECCENTRICITY":0.00013157,"INCLINATION":42.9993,"RA_OF_ASC_NODE":108.8348,"ARG_OF_PERICENTER":274.8837,"MEAN_ANOMALY":170.6177,"EPHEMERIS_TYPE":0,"CLASSIFICATION_TYPE":"U","NORAD_CAT_ID":57738,"ELEMENT_SET_NO":999,"REV_AT_EPOCH":567,"BSTAR":0.00092585279,"MEAN_MOTION_DOT":0.00025294,"MEAN_MOTION_DDOT":0},{"OBJECT_NAME":"STARLINK-30242","OBJECT_ID":"2023-131H","EPOCH":"2026-03-20T08:32:51.360864","MEAN_MOTION":15.27579578,"ECCENTRICITY":0.00013219,"INCLINATION":43.0018,"RA_OF_ASC_NODE":83.4081,"ARG_OF_PERICENTER":271.7197,"MEAN_ANOMALY":88.3503,"EPHEMERIS_TYPE":0,"CLASSIFICATION_TYPE":"U","NORAD_CAT_ID":57739,"ELEMENT_SET_NO":999,"REV_AT_EPOCH":14188,"BSTAR":3.2655064e-5,"MEAN_MOTION_DOT":6.37e-6,"MEAN_MOTION_DDOT":0},{"OBJECT_NAME":"STARLINK-30331","OBJECT_ID":"2023-131J","EPOCH":"2026-03-20T22:18:24.766848","MEAN_MOTION":15.27573904,"ECCENTRICITY":0.00010613,"INCLINATION":43.0054,"RA_OF_ASC_NODE":35.9235,"ARG_OF_PERICENTER":264.3235,"MEAN_ANOMALY":95.7496,"EPHEMERIS_TYPE":0,"CLASSIFICATION_TYPE":"U","NORAD_CAT_ID":57740,"ELEMENT_SET_NO":999,"REV_AT_EPOCH":14249,"BSTAR":2.1237238e-5,"MEAN_MOTION_DOT":3.22e-6,"MEAN_MOTION_DDOT":0},{"OBJECT_NAME":"STARLINK-30364","OBJECT_ID":"2023-131K","EPOCH":"2026-03-20T08:44:19.237056","MEAN_MOTION":15.26751329,"ECCENTRICITY":0.00014577,"INCLINATION":43.0023,"RA_OF_ASC_NODE":111.7709,"ARG_OF_PERICENTER":276.4883,"MEAN_ANOMALY":83.5803,"EPHEMERIS_TYPE":0,"CLASSIFICATION_TYPE":"U","NORAD_CAT_ID":57741,"ELEMENT_SET_NO":999,"REV_AT_EPOCH":14155,"BSTAR":4.1759447e-5,"MEAN_MOTION_DOT":8.61e-6,"MEAN_MOTION_DDOT":0},{"OBJECT_NAME":"STARLINK-30308","OBJECT_ID":"2023-131L","EPOCH":"2026-03-20T22:00:01.999584","MEAN_MOTION":15.26718679,"ECCENTRICITY":0.00014919,"INCLINATION":42.999,"RA_OF_ASC_NODE":108.8651,"ARG_OF_PERICENTER":264.0246,"MEAN_ANOMALY":167.6312,"EPHEMERIS_TYPE":0,"CLASSIFICATION_TYPE":"U","NORAD_CAT_ID":57742,"ELEMENT_SET_NO":999,"REV_AT_EPOCH":562,"BSTAR":0.0012140444,"MEAN_MOTION_DOT":0.00032428,"MEAN_MOTION_DDOT":0},{"OBJECT_NAME":"STARLINK-30361","OBJECT_ID":"2023-131M","EPOCH":"2026-03-20T22:00:01.999584","MEAN_MOTION":15.2674177,"ECCENTRICITY":0.0001679,"INCLINATION":42.9998,"RA_OF_ASC_NODE":108.7295,"ARG_OF_PERICENTER":266.1613,"MEAN_ANOMALY":222.3127,"EPHEMERIS_TYPE":0,"CLASSIFICATION_TYPE":"U","NORAD_CAT_ID":57743,"ELEMENT_SET_NO":999,"REV_AT_EPOCH":572,"BSTAR":0.00089337485,"MEAN_MOTION_DOT":0.00023782,"MEAN_MOTION_DDOT":0},{"OBJECT_NAME":"STARLINK-30363","OBJECT_ID":"2023-131N","EPOCH":"2026-03-20T18:16:08.062752","MEAN_MOTION":15.26752566,"ECCENTRICITY":0.00011526,"INCLINATION":43.0034,"RA_OF_ASC_NODE":95.118,"ARG_OF_PERICENTER":272.0249,"MEAN_ANOMALY":88.047,"EPHEMERIS_TYPE":0,"CLASSIFICATION_TYPE":"U","NORAD_CAT_ID":57744,"ELEMENT_SET_NO":999,"REV_AT_EPOCH":14178,"BSTAR":0.00010664785,"MEAN_MOTION_DOT":2.603e-5,"MEAN_MOTION_DDOT":0},{"OBJECT_NAME":"STARLINK-30362","OBJECT_ID":"2023-131P","EPOCH":"2026-03-20T22:00:01.999584","MEAN_MOTION":15.24660954,"ECCENTRICITY":0.00019246,"INCLINATION":43.0002,"RA_OF_ASC_NODE":109.3601,"ARG_OF_PERICENTER":240.6947,"MEAN_ANOMALY":338.0823,"EPHEMERIS_TYPE":0,"CLASSIFICATION_TYPE":"U","NORAD_CAT_ID":57745,"ELEMENT_SET_NO":999,"REV_AT_EPOCH":568,"BSTAR":0.045411982,"MEAN_MOTION_DOT":0.01251256,"MEAN_MOTION_DDOT":0},{"OBJECT_NAME":"STARLINK-30350","OBJECT_ID":"2023-131Q","EPOCH":"2026-03-20T18:55:58.999584","MEAN_MOTION":15.27579794,"ECCENTRICITY":0.00014562,"INCLINATION":43.0034,"RA_OF_ASC_NODE":106.3757,"ARG_OF_PERICENTER":264.9935,"MEAN_ANOMALY":95.0751,"EPHEMERIS_TYPE":0,"CLASSIFICATION_TYPE":"U","NORAD_CAT_ID":57746,"ELEMENT_SET_NO":999,"REV_AT_EPOCH":14165,"BSTAR":6.2531042e-5,"MEAN_MOTION_DOT":1.459e-5,"MEAN_MOTION_DDOT":0},{"OBJECT_NAME":"STARLINK-30307","OBJECT_ID":"2023-131R","EPOCH":"2026-03-20T22:00:01.999584","MEAN_MOTION":15.26702073,"ECCENTRICITY":0.00014176,"INCLINATION":42.9993,"RA_OF_ASC_NODE":109.0073,"ARG_OF_PERICENTER":269.336,"MEAN_ANOMALY":100.0225,"EPHEMERIS_TYPE":0,"CLASSIFICATION_TYPE":"U","NORAD_CAT_ID":57747,"ELEMENT_SET_NO":999,"REV_AT_EPOCH":573,"BSTAR":0.00075278195,"MEAN_MOTION_DOT":0.00019964,"MEAN_MOTION_DDOT":0},{"OBJECT_NAME":"STARLINK-30356","OBJECT_ID":"2023-131S","EPOCH":"2026-03-20T22:00:01.999584","MEAN_MOTION":15.26723867,"ECCENTRICITY":0.00014556,"INCLINATION":42.9999,"RA_OF_ASC_NODE":108.4317,"ARG_OF_PERICENTER":273.8621,"MEAN_ANOMALY":339.3728,"EPHEMERIS_TYPE":0,"CLASSIFICATION_TYPE":"U","NORAD_CAT_ID":57748,"ELEMENT_SET_NO":999,"REV_AT_EPOCH":563,"BSTAR":0.00096760373,"MEAN_MOTION_DOT":0.00025773,"MEAN_MOTION_DDOT":0},{"OBJECT_NAME":"STARLINK-30366","OBJECT_ID":"2023-131T","EPOCH":"2026-03-20T22:00:01.999584","MEAN_MOTION":15.07278893,"ECCENTRICITY":8.51e-5,"INCLINATION":43.0017,"RA_OF_ASC_NODE":110.2541,"ARG_OF_PERICENTER":233.4051,"MEAN_ANOMALY":324.032,"EPHEMERIS_TYPE":0,"CLASSIFICATION_TYPE":"U","NORAD_CAT_ID":57749,"ELEMENT_SET_NO":999,"REV_AT_EPOCH":578,"BSTAR":0.0027021347,"MEAN_MOTION_DOT":0.0004149,"MEAN_MOTION_DDOT":0},{"OBJECT_NAME":"STARLINK-30357","OBJECT_ID":"2023-131U","EPOCH":"2026-03-20T08:45:41.849280","MEAN_MOTION":15.02532841,"ECCENTRICITY":0.0001324,"INCLINATION":43.0029,"RA_OF_ASC_NODE":113.4688,"ARG_OF_PERICENTER":272.5119,"MEAN_ANOMALY":87.5572,"EPHEMERIS_TYPE":0,"CLASSIFICATION_TYPE":"U","NORAD_CAT_ID":57750,"ELEMENT_SET_NO":999,"REV_AT_EPOCH":14153,"BSTAR":9.6448713e-5,"MEAN_MOTION_DOT":1.099e-5,"MEAN_MOTION_DDOT":0},{"OBJECT_NAME":"STARLINK-30370","OBJECT_ID":"2023-131V","EPOCH":"2026-03-20T18:02:25.589184","MEAN_MOTION":15.2758409,"ECCENTRICITY":8.537e-5,"INCLINATION":43.001,"RA_OF_ASC_NODE":95.0763,"ARG_OF_PERICENTER":271.6518,"MEAN_ANOMALY":88.4236,"EPHEMERIS_TYPE":0,"CLASSIFICATION_TYPE":"U","NORAD_CAT_ID":57751,"ELEMENT_SET_NO":999,"REV_AT_EPOCH":14178,"BSTAR":2.2627353e-5,"MEAN_MOTION_DOT":3.61e-6,"MEAN_MOTION_DDOT":0},{"OBJECT_NAME":"STARLINK-30368","OBJECT_ID":"2023-131W","EPOCH":"2026-03-20T22:00:01.999584","MEAN_MOTION":15.2673418,"ECCENTRICITY":0.00010996,"INCLINATION":42.9995,"RA_OF_ASC_NODE":108.9218,"ARG_OF_PERICENTER":250.5505,"MEAN_ANOMALY":141.2916,"EPHEMERIS_TYPE":0,"CLASSIFICATION_TYPE":"U","NORAD_CAT_ID":57752,"ELEMENT_SET_NO":999,"REV_AT_EPOCH":578,"BSTAR":0.001083349,"MEAN_MOTION_DOT":0.00028908,"MEAN_MOTION_DDOT":0}]
